[{"OBJECT_NAME":"ONEWEB-0527","OBJECT_ID":"2022-166A","EPOCH":"2025-11-27T21:27:19.393344","MEAN_MOTION":13.21826069,"ECCENTRICITY":0.0001898,"INCLINATION":87.9203,"RA_OF_ASC_NODE":284.1498,"ARG_OF_PERICENTER":78.421,"MEAN_ANOMALY":281.7137,"EPHEMERIS_TYPE":0,"CLASSIFICATION_TYPE":"U","NORAD_CAT_ID":54642,"ELEMENT_SET_NO":999,"REV_AT_EPOCH":14494,"BSTAR":-4.1986e-5,"MEAN_MOTION_DOT":-4.0e-8,"MEAN_MOTION_DDOT":0},{"OBJECT_NAME":"ONEWEB-0528","OBJECT_ID":"2022-166B","EPOCH":"2025-11-28T03:03:49.917312","MEAN_MOTION":13.21827009,"ECCENTRICITY":0.0001938,"INCLINATION":87.9204,"RA_OF_ASC_NODE":284.1071,"ARG_OF_PERICENTER":78.9395,"MEAN_ANOMALY":281.1957,"EPHEMERIS_TYPE":0,"CLASSIFICATION_TYPE":"U","NORAD_CAT_ID":54643,"ELEMENT_SET_NO":999,"REV_AT_EPOCH":14498,"BSTAR":0.00014515,"MEAN_MOTION_DOT":7.3e-7,"MEAN_MOTION_DDOT":0},{"OBJECT_NAME":"ONEWEB-0539","OBJECT_ID":"2022-166C","EPOCH":"2025-11-28T03:58:19.606080","MEAN_MOTION":13.21824907,"ECCENTRICITY":0.0001959,"INCLINATION":87.9206,"RA_OF_ASC_NODE":284.0654,"ARG_OF_PERICENTER":86.251,"MEAN_ANOMALY":273.8848,"EPHEMERIS_TYPE":0,"CLASSIFICATION_TYPE":"U","NORAD_CAT_ID":54644,"ELEMENT_SET_NO":999,"REV_AT_EPOCH":14498,"BSTAR":-0.00017925,"MEAN_MOTION_DOT":-6.1e-7,"MEAN_MOTION_DDOT":0},{"OBJECT_NAME":"ONEWEB-0540","OBJECT_ID":"2022-166D","EPOCH":"2025-11-28T04:07:58.586304","MEAN_MOTION":13.21837493,"ECCENTRICITY":0.0001984,"INCLINATION":87.9207,"RA_OF_ASC_NODE":284.1017,"ARG_OF_PERICENTER":84.0557,"MEAN_ANOMALY":276.0803,"EPHEMERIS_TYPE":0,"CLASSIFICATION_TYPE":"U","NORAD_CAT_ID":54645,"ELEMENT_SET_NO":999,"REV_AT_EPOCH":14497,"BSTAR":0.0028635,"MEAN_MOTION_DOT":1.196e-5,"MEAN_MOTION_DDOT":0},{"OBJECT_NAME":"ONEWEB-0542","OBJECT_ID":"2022-166E","EPOCH":"2025-11-28T02:23:30.581664","MEAN_MOTION":13.21829837,"ECCENTRICITY":0.0001845,"INCLINATION":87.9201,"RA_OF_ASC_NODE":284.0754,"ARG_OF_PERICENTER":92.9178,"MEAN_ANOMALY":267.2167,"EPHEMERIS_TYPE":0,"CLASSIFICATION_TYPE":"U","NORAD_CAT_ID":54646,"ELEMENT_SET_NO":999,"REV_AT_EPOCH":14497,"BSTAR":0.00028425,"MEAN_MOTION_DOT":1.3e-6,"MEAN_MOTION_DDOT":0},{"OBJECT_NAME":"ONEWEB-0545","OBJECT_ID":"2022-166F","EPOCH":"2025-11-27T21:55:45.321600","MEAN_MOTION":13.21827783,"ECCENTRICITY":0.0001964,"INCLINATION":87.9201,"RA_OF_ASC_NODE":284.1325,"ARG_OF_PERICENTER":95.0184,"MEAN_ANOMALY":265.1174,"EPHEMERIS_TYPE":0,"CLASSIFICATION_TYPE":"U","NORAD_CAT_ID":54647,"ELEMENT_SET_NO":999,"REV_AT_EPOCH":14491,"BSTAR":6.2913e-5,"MEAN_MOTION_DOT":3.9e-7,"MEAN_MOTION_DDOT":0},{"OBJECT_NAME":"ONEWEB-0580","OBJECT_ID":"2022-166G","EPOCH":"2025-11-28T02:44:51.550656","MEAN_MOTION":13.21824375,"ECCENTRICITY":0.0001691,"INCLINATION":87.9204,"RA_OF_ASC_NODE":284.0916,"ARG_OF_PERICENTER":90.7036,"MEAN_ANOMALY":269.4292,"EPHEMERIS_TYPE":0,"CLASSIFICATION_TYPE":"U","NORAD_CAT_ID":54648,"ELEMENT_SET_NO":999,"REV_AT_EPOCH":14498,"BSTAR":9.919e-5,"MEAN_MOTION_DOT":5.4e-7,"MEAN_MOTION_DDOT":0},{"OBJECT_NAME":"ONEWEB-0582","OBJECT_ID":"2022-166H","EPOCH":"2025-11-28T03:46:27.676128","MEAN_MOTION":13.21824526,"ECCENTRICITY":0.0001695,"INCLINATION":87.9205,"RA_OF_ASC_NODE":284.0759,"ARG_OF_PERICENTER":96.2782,"MEAN_ANOMALY":263.8545,"EPHEMERIS_TYPE":0,"CLASSIFICATION_TYPE":"U","NORAD_CAT_ID":54649,"ELEMENT_SET_NO":999,"REV_AT_EPOCH":14496,"BSTAR":-8.316e-5,"MEAN_MOTION_DOT":-2.1e-7,"MEAN_MOTION_DDOT":0},{"OBJECT_NAME":"ONEWEB-0583","OBJECT_ID":"2022-166J","EPOCH":"2025-11-28T04:03:02.852064","MEAN_MOTION":13.21823821,"ECCENTRICITY":0.0001911,"INCLINATION":87.9208,"RA_OF_ASC_NODE":284.0984,"ARG_OF_PERICENTER":83.8479,"MEAN_ANOMALY":276.2872,"EPHEMERIS_TYPE":0,"CLASSIFICATION_TYPE":"U","NORAD_CAT_ID":54650,"ELEMENT_SET_NO":999,"REV_AT_EPOCH":14497,"BSTAR":-0.00011966,"MEAN_MOTION_DOT":-3.6e-7,"MEAN_MOTION_DDOT":0},{"OBJECT_NAME":"ONEWEB-0584","OBJECT_ID":"2022-166K","EPOCH":"2025-11-28T02:42:28.359936","MEAN_MOTION":13.21828855,"ECCENTRICITY":0.0001612,"INCLINATION":87.9206,"RA_OF_ASC_NODE":284.0958,"ARG_OF_PERICENTER":89.6096,"MEAN_ANOMALY":270.5223,"EPHEMERIS_TYPE":0,"CLASSIFICATION_TYPE":"U","NORAD_CAT_ID":54651,"ELEMENT_SET_NO":999,"REV_AT_EPOCH":14495,"BSTAR":0.00019926,"MEAN_MOTION_DOT":9.5e-7,"MEAN_MOTION_DDOT":0},{"OBJECT_NAME":"ONEWEB-0585","OBJECT_ID":"2022-166L","EPOCH":"2025-11-28T03:18:02.993760","MEAN_MOTION":13.21826283,"ECCENTRICITY":0.0001905,"INCLINATION":87.9204,"RA_OF_ASC_NODE":284.0754,"ARG_OF_PERICENTER":77.0882,"MEAN_ANOMALY":283.0465,"EPHEMERIS_TYPE":0,"CLASSIFICATION_TYPE":"U","NORAD_CAT_ID":54652,"ELEMENT_SET_NO":999,"REV_AT_EPOCH":14496,"BSTAR":0.00020389,"MEAN_MOTION_DOT":9.7e-7,"MEAN_MOTION_DDOT":0},{"OBJECT_NAME":"ONEWEB-0586","OBJECT_ID":"2022-166M","EPOCH":"2025-11-28T03:37:00.003072","MEAN_MOTION":13.21823801,"ECCENTRICITY":0.0001831,"INCLINATION":87.9203,"RA_OF_ASC_NODE":284.0984,"ARG_OF_PERICENTER":85.5284,"MEAN_ANOMALY":274.6059,"EPHEMERIS_TYPE":0,"CLASSIFICATION_TYPE":"U","NORAD_CAT_ID":54653,"ELEMENT_SET_NO":999,"REV_AT_EPOCH":14496,"BSTAR":0.00010305,"MEAN_MOTION_DOT":5.6e-7,"MEAN_MOTION_DDOT":0},{"OBJECT_NAME":"ONEWEB-0587","OBJECT_ID":"2022-166N","EPOCH":"2025-11-27T20:35:12.134112","MEAN_MOTION":13.218239,"ECCENTRICITY":0.000199,"INCLINATION":87.9212,"RA_OF_ASC_NODE":284.1113,"ARG_OF_PERICENTER":68.6407,"MEAN_ANOMALY":291.4939,"EPHEMERIS_TYPE":0,"CLASSIFICATION_TYPE":"U","NORAD_CAT_ID":54654,"ELEMENT_SET_NO":999,"REV_AT_EPOCH":14508,"BSTAR":-1.1274e-5,"MEAN_MOTION_DOT":8.0e-8,"MEAN_MOTION_DDOT":0},{"OBJECT_NAME":"ONEWEB-0589","OBJECT_ID":"2022-166P","EPOCH":"2025-11-28T03:32:16.122048","MEAN_MOTION":13.21825275,"ECCENTRICITY":0.0001424,"INCLINATION":87.92,"RA_OF_ASC_NODE":284.0898,"ARG_OF_PERICENTER":107.7998,"MEAN_ANOMALY":252.3292,"EPHEMERIS_TYPE":0,"CLASSIFICATION_TYPE":"U","NORAD_CAT_ID":54655,"ELEMENT_SET_NO":999,"REV_AT_EPOCH":14498,"BSTAR":0.00020915,"MEAN_MOTION_DOT":9.9e-7,"MEAN_MOTION_DDOT":0},{"OBJECT_NAME":"ONEWEB-0590","OBJECT_ID":"2022-166Q","EPOCH":"2025-11-28T04:07:35.025888","MEAN_MOTION":13.21824,"ECCENTRICITY":0.0001533,"INCLINATION":87.9206,"RA_OF_ASC_NODE":284.0617,"ARG_OF_PERICENTER":72.031,"MEAN_ANOMALY":288.0991,"EPHEMERIS_TYPE":0,"CLASSIFICATION_TYPE":"U","NORAD_CAT_ID":54656,"ELEMENT_SET_NO":999,"REV_AT_EPOCH":14497,"BSTAR":6.1472e-5,"MEAN_MOTION_DOT":3.8e-7,"MEAN_MOTION_DDOT":0},{"OBJECT_NAME":"ONEWEB-0591","OBJECT_ID":"2022-166R","EPOCH":"2025-11-28T02:35:22.274880","MEAN_MOTION":13.21828736,"ECCENTRICITY":0.0001764,"INCLINATION":87.9205,"RA_OF_ASC_NODE":284.0981,"ARG_OF_PERICENTER":81.0184,"MEAN_ANOMALY":279.1149,"EPHEMERIS_TYPE":0,"CLASSIFICATION_TYPE":"U","NORAD_CAT_ID":54657,"ELEMENT_SET_NO":999,"REV_AT_EPOCH":14499,"BSTAR":0.00019023,"MEAN_MOTION_DOT":9.2e-7,"MEAN_MOTION_DDOT":0},{"OBJECT_NAME":"ONEWEB-0592","OBJECT_ID":"2022-166S","EPOCH":"2025-11-28T02:40:06.326976","MEAN_MOTION":13.21823572,"ECCENTRICITY":0.0001796,"INCLINATION":87.9213,"RA_OF_ASC_NODE":284.0591,"ARG_OF_PERICENTER":81.9411,"MEAN_ANOMALY":278.1927,"EPHEMERIS_TYPE":0,"CLASSIFICATION_TYPE":"U","NORAD_CAT_ID":54658,"ELEMENT_SET_NO":999,"REV_AT_EPOCH":14487,"BSTAR":0.00015269,"MEAN_MOTION_DOT":7.6e-7,"MEAN_MOTION_DDOT":0}]
